[
    {
        "CCSDS_OMM_VERS": "3.0",
        "COMMENT": "GENERATED VIA SPACE-TRACK.ORG API",
        "CREATION_DATE": "2025-03-01T17:52:32",
        "ORIGINATOR": "18 SPCS",
        "OBJECT_NAME": "BEIDOU 3M25",
        "OBJECT_ID": "2024-168B",
        "CENTER_NAME": "EARTH",
        "REF_FRAME": "TEME",
        "TIME_SYSTEM": "UTC",
        "MEAN_ELEMENT_THEORY": "SGP4",
        "EPOCH": "2025-03-01T03:16:38.766720",
        "MEAN_MOTION": "1.86229791",
        "ECCENTRICITY": "0.00047950",
        "INCLINATION": "54.8825",
        "RA_OF_ASC_NODE": "318.6291",
        "ARG_OF_PERICENTER": "306.0737",
        "MEAN_ANOMALY": "236.6818",
        "EPHEMERIS_TYPE": "0",
        "CLASSIFICATION_TYPE": "U",
        "NORAD_CAT_ID": "61186",
        "ELEMENT_SET_NO": "999",
        "REV_AT_EPOCH": "297",
        "BSTAR": "0.00000000000000",
        "MEAN_MOTION_DOT": "-0.00000050",
        "MEAN_MOTION_DDOT": "0.0000000000000",
        "SEMIMAJOR_AXIS": "27906.309",
        "PERIOD": "773.238",
        "APOAPSIS": "21541.555",
        "PERIAPSIS": "21514.793",
        "OBJECT_TYPE": "PAYLOAD",
        "RCS_SIZE": null,
        "COUNTRY_CODE": "PRC",
        "LAUNCH_DATE": "2024-09-19",
        "SITE": "XSC",
        "DECAY_DATE": null,
        "FILE": "4656182",
        "GP_ID": "282015868",
        "TLE_LINE0": "0 BEIDOU 3M25",
        "TLE_LINE1": "1 61186U 24168B   25060.13655980 -.00000050  00000-0  00000-0 0  9999",
        "TLE_LINE2": "2 61186  54.8825 318.6291 0004795 306.0737 236.6818  1.86229791  2974"
    }
]